BRAC ONNESHA            
1 42823U 98067MX  18074.17023344  .00020495  00000-0  22141-3 0  9996
2 42823  51.6364 118.1409 0004145 189.9671 170.1242 15.63592675 39104
NIGERIAEDUSAT-1         
1 42824U 98067MY  18073.41743957  .00014117  00000-0  15541-3 0  9992
2 42824  51.6375 122.1241 0004093 187.8636 172.2295 15.63427043 39002
CORVUS BC2              
1 42846U 17042X   18074.70416187  .00000140  00000-0  19206-4 0  9999
2 42846  97.6048 340.9139 0010513 140.7097 219.4887 14.91773366 36439
CORVUS BC1              
1 42847U 17042Y   18074.68802951  .00000342  00000-0  39180-4 0  9992
2 42847  97.6048 340.9339 0010151 140.3720 219.8243 14.91872319 36426
SILU-1 (SILKROAD 1)     
1 42903U 17021F   18074.74962794  .00018059  00000-0  16495-3 0  9998
2 42903  42.7780 172.4851 0011135 357.0701 138.1750 15.67436273 35243
MIRATA                  
1 43015U 17073C   18074.79761626  .00000820  00000-0  70926-4 0  9993
2 43015  97.6991   9.7889 0258064 215.2947 143.0942 14.77874973 17347
ASTERIA                 
1 43020U 98067NH  18073.74074793  .00009892  00000-0  14065-3 0  9996
2 43020  51.6398 128.0526 0002058 161.9720 198.1345 15.57063970 17763
DELLINGR (RBLE)         
1 43021U 98067NJ  18074.54508087  .00006669  00000-0  10026-3 0  9996
2 43021  51.6394 124.4195 0001949 162.8565 197.2493 15.56168194 17887
TECHEDSAT 6             
1 43026U 98067NK  18074.74593186  .00129279  00000-0  10732-2 0  9993
2 43026  51.6344 118.2359 0003503  14.0672 346.0422 15.69261786 17886
OSIRIS-3U               
1 43027U 98067NL  18074.16261819  .00024605  00000-0  31071-3 0  9992
2 43027  51.6383 124.8637 0002285 134.7021 225.4158 15.59408688 17728
AEROCUBE 7B             
1 43042U 17071F   18073.80758593  .00003180  00000-0  93602-4 0  9999
2 43042  51.6393 141.0947 0005024 287.5623  72.4812 15.38159712 15071
AEROCUBE 7C             
1 43043U 17071G   18073.80694483  .00002941  00000-0  87296-4 0  9993
2 43043  51.6395 141.0920 0004924 287.1778  72.8667 15.38182809 15042
CHEFSAT                 
1 43044U 17071H   18074.76691191  .00007273  00000-0  19749-3 0  9993
2 43044  51.6394 136.2567 0005014 287.5239  72.5197 15.38650920 15197
ASGARDIA 1              
1 43049U 17071N   18074.18615454  .00003547  00000-0  10260-3 0  9991
2 43049  51.6394 139.1266 0002401 312.9915  47.0867 15.38343341 15097
ISARA                   
1 43050U 17071P   18074.24347443  .00006408  00000-0  17548-3 0  9995
2 43050  51.6393 138.7637 0002448 308.5299  51.5465 15.38610282 15109
FAUNA                   
1 43052U 17071R   18074.24660825  .00004203  00000-0  11930-3 0  9999
2 43052  51.6396 138.7844 0002310 309.3061  50.7718 15.38438315 15105
CORVUS BC3              
1 43118U 18004H   18074.72823620  .00000994  00000-0  46531-4 0  9995
2 43118  97.5447 137.0867 0012184  66.0553 294.1958 15.22066486  9498
MICROMAS-2A             
1 43131U 18004W   18074.12482863  .00002231  00000-0  99514-4 0  9999
2 43131  97.5453 136.5122 0011453  71.3943 288.8536 15.22415212  9406
GOMX4-B                 
1 43196U 18015E   18074.41837680  .00002332  00000-0  10000-3 0  9999
2 43196  97.3307 205.3925 0021152 126.4633 233.7973 15.23525028  6256
GOMX4-A                 
1 43197U 18015F   18075.14292824  .00001085  00000-0  48083-4 0  9993
2 43197  97.3303 206.0839 0020760 123.3920 231.5009 15.23536860  6368
